0 EUTE KA SAT 9A (KA SAT)
1 37258U 10069A   13282.26618876  .00000049  00000-0  10000-3 0  7042
2 37258 000.0400 298.0103 0001982 143.6655 041.2634 01.00274335 10358
0 EUTE KA SAT 9A (KA SAT)
1 37258U 10069A   13283.88035015  .00000044  00000-0  10000-3 0  7055
2 37258 000.0381 299.1806 0002501 130.9420 275.4969 01.00273426 10368
0 EUTE KA SAT 9A (KA SAT)
1 37258U 10069A   13285.22853435  .00000039  00000-0  10000-3 0  7075
2 37258 000.0374 302.0683 0002408 160.7203 009.4945 01.00270677 10389
0 EUTE KA SAT 9A (KA SAT)
1 37258U 10069A   13286.24441450  .00000037  00000-0  10000-3 0  7087
2 37258 000.0368 303.8888 0002529 160.3242 014.7815 01.00270493 10393
0 EUTE KA SAT 9A (KA SAT)
1 37258U 10069A   13288.77408685  .00000037  00000-0  10000-3 0  7091
2 37258 000.0347 305.4340 0002502 158.6341 208.0884 01.00271028 10414
0 EUTE KA SAT 9A (KA SAT)
1 37258U 10069A   13290.14144816  .00000039  00000-0  10000-3 0  7102
2 37258 000.0353 304.2054 0002048 164.2994 337.2360 01.00270697 10439
0 EUTE KA SAT 9A (KA SAT)
1 37258U 10069A   13292.13811288  .00000043  00000-0  10000-3 0  7113
2 37258 000.0350 302.7144 0001014 171.7668 332.0189 01.00271299 10455
0 EUTE KA SAT 9A (KA SAT)
1 37258U 10069A   13293.14439524  .00000045  00000-0  10000-3 0  7127
2 37258 000.0341 302.6644 0001224 171.8448 335.2468 01.00271904 10468
0 EUTE KA SAT 9A (KA SAT)
1 37258U 10069A   13295.06968779  .00000049  00000-0  10000-3 0  7134
2 37258 000.0327 300.6389 0001273 176.7173 307.4075 01.00272724 10487
0 EUTE KA SAT 9A (KA SAT)
1 37258U 10069A   13295.82089220  .00000050  00000-0  10000-3 0  7146
2 37258 000.0320 301.0810 0001049 172.3160 222.5374 01.00272648 10487
